[{"OBJECT_NAME":"GHGSAT-C12","OBJECT_ID":"2025-135B","EPOCH":"2026-03-09T21:42:54.844416","MEAN_MOTION":15.19558972,"ECCENTRICITY":0.0005838,"INCLINATION":97.4617,"RA_OF_ASC_NODE":184.7149,"ARG_OF_PERICENTER":147.3031,"MEAN_ANOMALY":212.8566,"EPHEMERIS_TYPE":0,"CLASSIFICATION_TYPE":"U","NORAD_CAT_ID":64529,"ELEMENT_SET_NO":999,"REV_AT_EPOCH":3974,"BSTAR":0.00022956142,"MEAN_MOTION_DOT":4.815e-5,"MEAN_MOTION_DDOT":0},{"OBJECT_NAME":"HYDROGNSS-1","OBJECT_ID":"2025-276DA","EPOCH":"2026-03-09T16:55:29.279136","MEAN_MOTION":15.18118061,"ECCENTRICITY":0.00027273,"INCLINATION":97.4268,"RA_OF_ASC_NODE":143.9079,"ARG_OF_PERICENTER":33.5879,"MEAN_ANOMALY":326.5527,"EPHEMERIS_TYPE":0,"CLASSIFICATION_TYPE":"U","NORAD_CAT_ID":66762,"ELEMENT_SET_NO":999,"REV_AT_EPOCH":1531,"BSTAR":0.00026903168,"MEAN_MOTION_DOT":5.422e-5,"MEAN_MOTION_DDOT":0}]
